ONEWEB-0271             
1 48989U 21060Y   25220.89933873  .00000135  00000+0  31897-3 0  9997
2 48989  87.9038 291.0159 0002081  89.7171 270.4198 13.16594126198575
ONEWEB-0272             
1 48990U 21060Z   25220.92149408 -.00000110  00000+0 -32223-3 0  9995
2 48990  87.9035 291.0413 0002252  91.4875 268.6513 13.16592187198528
ONEWEB-0273             
1 48991U 21060AA  25220.94366353  .00000073  00000+0  15617-3 0  9992
2 48991  87.9038 291.0229 0001935  91.7594 268.3759 13.16592088198502
ONEWEB-0274             
1 48992U 21060AB  25220.74101408  .00000097  00000+0  22055-3 0  9999
2 48992  87.9033 291.0969 0002412  96.5908 263.5498 13.16594296198513
ONEWEB-0275             
1 48993U 21060AC  25220.72993079  .00000050  00000+0  96269-4 0  9999
2 48993  87.9038 291.0608 0002101  95.1747 264.9624 13.16594643198444
ONEWEB-0276             
1 48994U 21060AD  25220.91516324 -.00000028  00000+0 -10702-3 0  9999
2 48994  87.9038 291.0209 0001868  93.7497 266.3847 13.16592818198486
ONEWEB-0277             
1 48995U 21060AE  25220.92782785  .00000046  00000+0  85504-4 0  9998
2 48995  87.9033 291.0527 0002185  86.6328 273.5053 13.16595698198479
ONEWEB-0278             
1 48996U 21060AF  25220.91832452 -.00000062  00000+0 -19453-3 0  9994
2 48996  87.9038 291.0170 0001808  99.3160 260.8176 13.16592242198607
ONEWEB-0279             
1 48997U 21060AG  25220.92625736  .00000012  00000+0 -17249-5 0  9998
2 48997  87.9037 291.0112 0002244  90.5331 269.6057 13.16593644198535
ONEWEB-0280             
1 48998U 21060AH  25220.94129022  .00000115  00000+0  26689-3 0  9997
2 48998  87.9037 291.0153 0001757  88.3395 271.7937 13.16594393198470
ONEWEB-0281             
1 48999U 21060AJ  25220.94683616  .00000102  00000+0  23351-3 0  9991
2 48999  87.9036 291.0116 0002160  99.0265 261.1110 13.16594678198543
ONEWEB-0282             
1 49000U 21060AK  25220.90091222 -.00000123  00000+0 -35521-3 0  9994
2 49000  87.9032 291.0311 0001964  90.8929 269.2427 13.16592563198515
ONEWEB-0283             
1 49001U 21060AL  25220.73784544  .00000053  00000+0  10578-3 0  9997
2 49001  87.9032 291.0673 0002112  92.1972 267.9401 13.16593833198503
ONEWEB-0284             
1 49002U 21060AM  25220.73150365  .00000126  00000+0  29474-3 0  9992
2 49002  87.9050 291.0443 0001699 102.2184 257.9138 13.16592500198489
ONEWEB-0285             
1 49075U 21075A   25220.79286162 -.00000451  00000+0 -12884-2 0  9998
2 49075  87.8845  52.7561 0001707  86.6967 273.4357 13.12440989194231
ONEWEB-0286             
1 49076U 21075B   25220.77474670  .00000003  00000+0 -27025-4 0  9997
2 49076  87.8867  52.7893 0001749  94.2792 265.8536 13.12441653193581
ONEWEB-0287             
1 49077U 21075C   25220.84118773  .00000023  00000+0  25859-4 0  9999
2 49077  87.9037  68.0226 0001633 100.1218 260.0097 13.17651510192492
ONEWEB-0288             
1 49078U 21075D   25220.90303685  .00000427  00000+0  11515-2 0  9995
2 49078  87.8851  52.7280 0001594  89.7006 270.4305 13.12443473194221
ONEWEB-0289             
1 49079U 21075E   25220.80241690  .00000081  00000+0  17608-3 0  9998
2 49079  87.9021  68.0607 0001371  72.8182 287.3099 13.17099048193064
ONEWEB-0290             
1 49080U 21075F   25220.85299384  .00000097  00000+0  21646-3 0  9992
2 49080  87.9027  68.0025 0001560  63.5234 296.6057 13.17648718192487
ONEWEB-0291             
1 49081U 21075G   25220.83780463  .00000004  00000+0 -22882-4 0  9997
2 49081  87.9034  68.0080 0001403  92.8222 267.3070 13.17651006192478
ONEWEB-0293             
1 49082U 21075H   25220.86313385  .00000054  00000+0  10578-3 0  9998
2 49082  87.9024  68.0361 0001632  82.5404 277.5913 13.17647835192500
ONEWEB-0294             
1 49083U 21075J   25220.90952979  .00000426  00000+0  11500-2 0  9990
2 49083  87.8850  52.7261 0001353  79.1258 281.0023 13.12440807193615
ONEWEB-0295             
1 49084U 21075K   25220.86228082  .00000097  00000+0  21723-3 0  9990
2 49084  87.9034  68.0368 0001475  94.5267 265.6033 13.17649277192463
ONEWEB-0296             
1 49085U 21075L   25220.81381060  .00000134  00000+0  33756-3 0  9993
2 49085  87.8844  52.7529 0001213  95.9101 264.2165 13.12444666193601
ONEWEB-0297             
1 49086U 21075M   25220.92088079  .00000290  00000+0  77119-3 0  9994
2 49086  87.8850  52.7693 0001751  91.1455 268.9874 13.12441087194229
ONEWEB-0298             
1 49087U 21075N   25220.86663427  .00000024  00000+0  28771-4 0  9990
2 49087  87.9025  68.0335 0001822  90.3978 269.7362 13.17649528192491
ONEWEB-0299             
1 49088U 21075P   25220.86817712  .00000020  00000+0  17986-4 0  9991
2 49088  87.9035  67.9860 0001779  92.7682 267.3653 13.17650554192479
ONEWEB-0300             
1 49089U 21075Q   25220.91277451  .00000449  00000+0  12113-2 0  9998
2 49089  87.8847  52.7232 0002095  88.9882 271.1486 13.12442265194243
ONEWEB-0301             
1 49090U 21075R   25220.89654644  .00000383  00000+0  10283-2 0  9993
2 49090  87.8847  52.7320 0002222  88.6462 271.4921 13.12445027193601
ONEWEB-0302             
1 49091U 21075S   25220.80735150 -.00000150  00000+0 -45226-3 0  9997
2 49091  87.8855  52.7532 0001391  84.9250 275.2037 13.12442260193578
ONEWEB-0304             
1 49092U 21075T   25220.84286016  .00000019  00000+0  14609-4 0  9998
2 49092  87.9030  68.0233 0001687  89.4170 270.7155 13.17650810192445
ONEWEB-0305             
1 49093U 21075U   25220.83613365  .00000976  00000+0  24796-2 0  9997
2 49093  87.9030  68.0006 0001573 100.4023 259.7286 13.17641952192471
ONEWEB-0308             
1 49094U 21075V   25220.80084727 -.00000367  00000+0 -10546-2 0  9993
2 49094  87.8849  52.7475 0001768  87.6141 272.5190 13.12442598193582
ONEWEB-0309             
1 49095U 21075W   25220.61168504  .00000073  00000+0  15436-3 0  9995
2 49095  87.9029  68.0630 0001384  77.2658 282.8628 13.17648559192410
ONEWEB-0310             
1 49096U 21075X   25220.89167731  .00000065  00000+0  14573-3 0  9999
2 49096  87.8851  52.7751 0001709  88.2102 271.9223 13.12443820194224
ONEWEB-0311             
1 49097U 21075Y   25220.84624709 -.00000071  00000+0 -21723-3 0  9992
2 49097  87.9024  68.0164 0001691  98.7780 261.3543 13.17648133192498
ONEWEB-0312             
1 49098U 21075Z   25220.86144001  .00000061  00000+0  12429-3 0  9997
2 49098  87.9025  68.0449 0001444  92.6541 267.4756 13.17649735192470
ONEWEB-0313             
1 49099U 21075AA  25220.86634346  .00000027  00000+0  36720-4 0  9997
2 49099  87.9020  68.0578 0001850  89.7919 270.3425 13.17650916192464
ONEWEB-0314             
1 49100U 21075AB  25220.83275712  .00000050  00000+0  95216-4 0  9996
2 49100  87.9030  67.9984 0001458  94.5150 265.6148 13.17649871192436
ONEWEB-0315             
1 49101U 21075AC  25220.78948150 -.00000374  00000+0 -10758-2 0  9991
2 49101  87.8851  52.7406 0001891 100.1468 259.9874 13.12443622194193
ONEWEB-0316             
1 49102U 21075AD  25220.92707001 -.00000001  00000+0 -35624-4 0  9994
2 49102  87.9128  37.4896 0001913  97.1874 262.9476 13.18686256196053
ONEWEB-0317             
1 49103U 21075AE  25220.93547080 -.00000218  00000+0 -64178-3 0  9990
2 49103  87.8847  52.7262 0001551  60.3857 299.7426 13.12440866194239
ONEWEB-0318             
1 49104U 21075AF  25220.92376533  .00000049  00000+0  90634-4 0  9990
2 49104  87.9133  37.4762 0001880  98.5341 261.6004 13.18687237196019
ONEWEB-0319             
1 49105U 21075AG  25220.84793044 -.00000017  00000+0 -76855-4 0  9998
2 49105  87.9023  68.0408 0001737 100.0832 260.0496 13.17650066192473
ONEWEB-0323             
1 49106U 21075AH  25220.54455743  .00000003  00000+0 -26937-4 0  9997
2 49106  87.8848  52.7901 0001734 112.1721 247.9592 13.12441856193544
ONEWEB-0329             
1 49107U 21075AJ  25220.85637295  .00000013  00000+0  10663-5 0  9996
2 49107  87.9022  68.0438 0001647  92.7876 267.3444 13.17648414192457
ONEWEB-0330             
1 49108U 21075AK  25220.85724166  .00000036  00000+0  59239-4 0  9997
2 49108  87.9027  68.0459 0001499  84.5265 275.6038 13.17650721192491
ONEWEB-0292             
1 49186U 21083A   25220.91360426  .00000142  00000+0  35331-3 0  9998
2 49186  87.8980  22.3007 0001852  99.2544 260.8794 13.13469234189935
ONEWEB-0303             
1 49187U 21083B   25220.92046527  .00000067  00000+0  13634-3 0  9991
2 49187  87.9131  37.4776 0001845  96.9803 263.1539 13.18685200188827
ONEWEB-0306             
1 49188U 21083C   25220.91056918  .00000079  00000+0  16641-3 0  9990
2 49188  87.9131  37.4650 0001787  84.2037 275.9299 13.18685371188860
ONEWEB-0307             
1 49189U 21083D   25220.90768537  .00000284  00000+0  74304-3 0  9995
2 49189  87.8966  22.3037 0001517  87.8528 272.2775 13.13470520189934
ONEWEB-0320             
1 49190U 21083E   25220.91716095  .00000096  00000+0  21186-3 0  9991
2 49190  87.9130  37.4922 0001806  92.3623 267.7716 13.18686843188821
ONEWEB-0321             
1 49191U 21083F   25220.85567368 -.00000048  00000+0 -14914-3 0  9992
2 49191  87.9288 336.6692 0001820  88.8019 271.3323 13.20772254195603
ONEWEB-0322             
1 49192U 21083G   25220.90345574  .00000356  00000+0  94073-3 0  9996
2 49192  87.8979  22.2971 0001756  79.8344 280.2983 13.13469453189922
ONEWEB-0324             
1 49193U 21083H   25220.90396999  .00000083  00000+0  17804-3 0  9998
2 49193  87.9133  37.4744 0001666  90.9979 269.1344 13.18686467188848
ONEWEB-0325             
1 49194U 21083J   25220.90726822  .00000067  00000+0  13727-3 0  9993
2 49194  87.9133  37.4907 0001855  88.5252 271.6092 13.18685520188855
ONEWEB-0326             
1 49195U 21083K   25220.92224778  .00000062  00000+0  12366-3 0  9992
2 49195  87.9129  37.4767 0001983 101.1057 259.0298 13.18685446188846
ONEWEB-0327             
1 49196U 21083L   25220.92197317  .00000047  00000+0  86430-4 0  9998
2 49196  87.9126  37.5049 0002010  98.6726 261.4634 13.18686344188864
